IRIDIUM 155             
1 43573U 18061E   22299.11383618  .00000198  00000+0  63582-4 0  9998
2 43573  86.3956 252.4799 0002405  79.4942 280.6524 14.34214657222724
IRIDIUM 154             
1 43574U 18061F   22299.16457951  .00000207  00000+0  66855-4 0  9993
2 43574  86.3960 252.5282 0002237  92.4938 267.6514 14.34216875222774
IRIDIUM 163             
1 43575U 18061G   22299.14554274  .00000194  00000+0  62337-4 0  9994
2 43575  86.3956 252.4925 0001836  85.6507 274.4899 14.34216254222743
IRIDIUM 156             
1 43576U 18061H   22299.12017611  .00000190  00000+0  60653-4 0  9997
2 43576  86.3956 252.5086 0002047  78.2816 281.8609 14.34217799222723
IRIDIUM 164             
1 43577U 18061J   22299.17092715  .00000208  00000+0  67366-4 0  9999
2 43577  86.3959 252.5074 0002101  92.2032 267.9405 14.34216825222785
IRIDIUM 159             
1 43578U 18061K   22298.86013853  .00000193  00000+0  61700-4 0  9990
2 43578  86.3956 252.6023 0002198  91.2538 268.8910 14.34214087222705
IRIDIUM 180             
1 43922U 19002A   22298.78985297  .00000223  00000+0  72550-4 0  9999
2 43922  86.4038 189.5827 0001917  97.0786 263.0628 14.34221228198303
IRIDIUM 176             
1 43923U 19002B   22299.09889649  .00000664  00000+0  10138-3 0  9991
2 43923  86.6170 189.4926 0002394  87.8297 272.3194 14.72260551203555
IRIDIUM 168             
1 43924U 19002C   22298.78350270  .00000221  00000+0  71947-4 0  9995
2 43924  86.4039 189.6248 0002097  90.8239 269.3197 14.34220185198286
IRIDIUM 173             
1 43925U 19002D   22298.77081804  .00000226  00000+0  73772-4 0  9992
2 43925  86.4036 189.5735 0002010  90.3458 269.7968 14.34220521198269
IRIDIUM 169             
1 43926U 19002E   22298.85903127  .00000252  00000+0  75811-4 0  9998
2 43926  86.4276 221.0819 0006112  57.3749 302.8038 14.38596465198965
IRIDIUM 172             
1 43927U 19002F   22298.41561973  .00000231  00000+0  75244-4 0  9997
2 43927  86.4037 189.7256 0001987  93.7403 266.4020 14.34223780198220
IRIDIUM 175             
1 43928U 19002G   22299.09271285  .00000665  00000+0  10159-3 0  9991
2 43928  86.6173 189.3297 0002598  88.7588 271.3926 14.72264789203540
IRIDIUM 171             
1 43929U 19002H   22299.16406291  .00000220  00000+0  71332-4 0  9995
2 43929  86.4046 189.5717 0002124  91.2142 268.9298 14.34220649198325
IRIDIUM 170             
1 43930U 19002J   22299.10506681  .00000649  00000+0  98969-4 0  9995
2 43930  86.6171 189.4952 0002524  89.2675 270.8832 14.72265169203567
IRIDIUM 167             
1 43931U 19002K   22299.15772403  .00000212  00000+0  68708-4 0  9992
2 43931  86.4037 189.4268 0001992  95.0484 265.0939 14.34216438198322
